IRIDIUM 136             
1 42962U 17061H   23264.74975794  .00000033  00000+0  48813-5 0  9991
2 42962  86.3913  82.9357 0002326  89.5741 270.5721 14.34217693311588
